[{"OBJECT_NAME":"CUTE-1.7+APD II (CO-65)","OBJECT_ID":"2008-021C","EPOCH":"2026-03-09T21:54:04.726080","MEAN_MOTION":15.08376872,"ECCENTRICITY":0.00096053,"INCLINATION":97.8207,"RA_OF_ASC_NODE":48.3884,"ARG_OF_PERICENTER":18.7003,"MEAN_ANOMALY":341.4575,"EPHEMERIS_TYPE":0,"CLASSIFICATION_TYPE":"U","NORAD_CAT_ID":32785,"ELEMENT_SET_NO":999,"REV_AT_EPOCH":97022,"BSTAR":0.00047295391,"MEAN_MOTION_DOT":7.295e-5,"MEAN_MOTION_DDOT":0},{"OBJECT_NAME":"STARLINK-4021","OBJECT_ID":"2022-083T","EPOCH":"2026-03-09T12:36:59.387040","MEAN_MOTION":15.08842093,"ECCENTRICITY":0.00013833,"INCLINATION":53.2174,"RA_OF_ASC_NODE":165.0594,"ARG_OF_PERICENTER":89.0535,"MEAN_ANOMALY":271.0615,"EPHEMERIS_TYPE":0,"CLASSIFICATION_TYPE":"U","NORAD_CAT_ID":53149,"ELEMENT_SET_NO":999,"REV_AT_EPOCH":20133,"BSTAR":1.5872904e-5,"MEAN_MOTION_DOT":-3.5e-7,"MEAN_MOTION_DDOT":0}]
